start=new Date('%Y-%m-27T00:00:00.000Z').valueOf();
sats=[{"APOAPSIS":"550.400","PERIOD":"95.644","GP_ID":"183213747","OBJECT_ID":"2020-057BE","COUNTRY_CODE":"US","MEAN_ANOMALY":"301.1026","MEAN_MOTION_DDOT":"0.0000000000000","TLE_LINE1":"1 46169U 20057BE  21233.92341136  .00001104  00000-0  94900-4 0  9992","RA_OF_ASC_NODE":"212.0876","TIME_SYSTEM":"UTC","CLASSIFICATION_TYPE":"U","OBJECT_NAME":"STARLINK-1628","MEAN_MOTION":"15.05586585","INCLINATION":"52.9990","PERIAPSIS":"549.016","SITE":"AFETR","LAUNCH_DATE":"2020-08-18","ECCENTRICITY":"0.00009990","ELEMENT_SET_NO":"999","NORAD_CAT_ID":"46169","SEMIMAJOR_AXIS":"6927.843","ARG_OF_PERICENTER":"59.0060","TLE_LINE2":"2 46169  52.9990 212.0876 0000999  59.0060 301.1026 15.05586585 55736","DECAY_DATE":null,"FILE":"3101032","CENTER_NAME":"EARTH","REV_AT_EPOCH":"5573","MEAN_MOTION_DOT":"0.00001104","MEAN_ELEMENT_THEORY":"SGP4","RCS_SIZE":"LARGE","OBJECT_TYPE":"PAYLOAD","EPOCH":"2021-08-21T22:09:42.741504","EPHEMERIS_TYPE":"0","REF_FRAME":"TEME","BSTAR":"0.00009490000000"},{"OBJECT_TYPE":"PAYLOAD","EPOCH":"2021-08-21T17:43:22.639008","EPHEMERIS_TYPE":"0","REF_FRAME":"TEME","BSTAR":"0.00209740000000","FILE":"3101032","CENTER_NAME":"EARTH","REV_AT_EPOCH":"5681","MEAN_MOTION_DOT":"0.00526899","MEAN_ELEMENT_THEORY":"SGP4","RCS_SIZE":"LARGE","ARG_OF_PERICENTER":"273.1195","TLE_LINE2":"2 46170  53.0542 135.4832 0007797 273.1195  86.8935 15.84718763 56812","DECAY_DATE":null,"SITE":"AFETR","LAUNCH_DATE":"2020-08-18","ECCENTRICITY":"0.00077970","ELEMENT_SET_NO":"999","NORAD_CAT_ID":"46170","SEMIMAJOR_AXIS":"6695.254","OBJECT_NAME":"STARLINK-1632","MEAN_MOTION":"15.84718763","INCLINATION":"53.0542","PERIAPSIS":"311.898","TIME_SYSTEM":"UTC","CLASSIFICATION_TYPE":"U","COUNTRY_CODE":"US","MEAN_MOTION_DDOT":"0.0000000000000","MEAN_ANOMALY":"86.8935","TLE_LINE1":"1 46170U 20057BF  21233.73845647  .00526899  00000-0  20974-2 0  9990","RA_OF_ASC_NODE":"135.4832","APOAPSIS":"322.339","PERIOD":"90.868","GP_ID":"183213764","OBJECT_ID":"2020-057BF"},{"ARG_OF_PERICENTER":"60.9509","TLE_LINE2":"2 46171  53.0537 192.1538 0001415  60.9509 299.1622 15.06406392 57282","DECAY_DATE":null,"ELEMENT_SET_NO":"999","SEMIMAJOR_AXIS":"6925.329","NORAD_CAT_ID":"46171","SITE":"AFETR","LAUNCH_DATE":"2020-08-18","ECCENTRICITY":"0.00014150","EPHEMERIS_TYPE":"0","OBJECT_TYPE":"PAYLOAD","EPOCH":"2021-08-21T21:50:32.595072","BSTAR":"0.00008162200000","REF_FRAME":"TEME","CENTER_NAME":"EARTH","FILE":"3101032","MEAN_ELEMENT_THEORY":"SGP4","RCS_SIZE":"LARGE","REV_AT_EPOCH":"5728","MEAN_MOTION_DOT":"0.00000935","MEAN_MOTION_DDOT":"0.0000000000000","MEAN_ANOMALY":"299.1622","COUNTRY_CODE":"US","RA_OF_ASC_NODE":"192.1538","TLE_LINE1":"1 46171U 20057BG  21233.91009948  .00000935  00000-0  81622-4 0  9994","OBJECT_ID":"2020-057BG","APOAPSIS":"548.174","PERIOD":"95.592","GP_ID":"183214012","MEAN_MOTION":"15.06406392","OBJECT_NAME":"STARLINK-1633","INCLINATION":"53.0537","PERIAPSIS":"546.214","CLASSIFICATION_TYPE":"U","TIME_SYSTEM":"UTC"},{"DECAY_DATE":null,"ARG_OF_PERICENTER":"64.5667","TLE_LINE2":"2 46172  53.0565 193.5714 0001590  64.5667 295.5486 15.06394919 57238","SITE":"AFETR","LAUNCH_DATE":"2020-08-18","ECCENTRICITY":"0.00015900","ELEMENT_SET_NO":"999","SEMIMAJOR_AXIS":"6925.364","NORAD_CAT_ID":"46172","REF_FRAME":"TEME","BSTAR":"0.00010437000000","OBJECT_TYPE":"PAYLOAD","EPOCH":"2021-08-21T14:14:04.565760","EPHEMERIS_TYPE":"0","REV_AT_EPOCH":"5723","MEAN_MOTION_DOT":"0.00001273","MEAN_ELEMENT_THEORY":"SGP4","RCS_SIZE":"LARGE","FILE":"3101032","CENTER_NAME":"EARTH","TLE_LINE1":"1 46172U 20057BH  21233.59310840  .00001273  00000-0  10437-3 0  9996","RA_OF_ASC_NODE":"193.5714","COUNTRY_CODE":"US","MEAN_MOTION_DDOT":"0.0000000000000","MEAN_ANOMALY":"295.5486","PERIOD":"95.592","APOAPSIS":"548.330","GP_ID":"183214262","OBJECT_ID":"2020-057BH","INCLINATION":"53.0565","PERIAPSIS":"546.128","OBJECT_NAME":"STARLINK-1635","MEAN_MOTION":"15.06394919","TIME_SYSTEM":"UTC","CLASSIFICATION_TYPE":"U"},{"CLASSIFICATION_TYPE":"U","TIME_SYSTEM":"UTC","PERIAPSIS":"546.372","INCLINATION":"53.0540","MEAN_MOTION":"15.06403961","OBJECT_NAME":"STARLINK-1640","OBJECT_ID":"2020-057BJ","GP_ID":"183213247","PERIOD":"95.592","APOAPSIS":"548.030","RA_OF_ASC_NODE":"212.1774","TLE_LINE1":"1 46173U 20057BJ  21233.90456992  .00000611  00000-0  59888-4 0  9990","MEAN_MOTION_DDOT":"0.0000000000000","MEAN_ANOMALY":"307.6900","COUNTRY_CODE":"US","RCS_SIZE":"LARGE","MEAN_ELEMENT_THEORY":"SGP4","MEAN_MOTION_DOT":"0.00000611","REV_AT_EPOCH":"5574","CENTER_NAME":"EARTH","FILE":"3101032","BSTAR":"0.00005988800000","REF_FRAME":"TEME","EPHEMERIS_TYPE":"0","EPOCH":"2021-08-21T21:42:34.841088","OBJECT_TYPE":"PAYLOAD","NORAD_CAT_ID":"46173","SEMIMAJOR_AXIS":"6925.336","ELEMENT_SET_NO":"999","LAUNCH_DATE":"2020-08-18","ECCENTRICITY":"0.00011970","SITE":"AFETR","DECAY_DATE":null,"TLE_LINE2":"2 46173  53.0540 212.1774 0001197  52.4198 307.6900 15.06403961 55742","ARG_OF_PERICENTER":"52.4198"},{"REF_FRAME":"TEME","BSTAR":"0.00006467800000","EPOCH":"2021-08-21T21:53:11.095008","OBJECT_TYPE":"PAYLOAD","EPHEMERIS_TYPE":"0","MEAN_MOTION_DOT":"0.00000682","REV_AT_EPOCH":"5574","RCS_SIZE":"LARGE","MEAN_ELEMENT_THEORY":"SGP4","FILE":"3101032","CENTER_NAME":"EARTH","DECAY_DATE":null,"TLE_LINE2":"2 46174  53.0543 212.1348 0001050  61.5889 298.5205 15.06402679 55740","ARG_OF_PERICENTER":"61.5889","LAUNCH_DATE":"2020-08-18","ECCENTRICITY":"0.00010500","SITE":"AFETR","NORAD_CAT_ID":"46174","SEMIMAJOR_AXIS":"6925.340","ELEMENT_SET_NO":"999","PERIAPSIS":"546.478","INCLINATION":"53.0543","OBJECT_NAME":"STARLINK-1641","MEAN_MOTION":"15.06402679","TIME_SYSTEM":"UTC","CLASSIFICATION_TYPE":"U","TLE_LINE1":"1 46174U 20057BK  21233.91193397  .00000682  00000-0  64678-4 0  9990","RA_OF_ASC_NODE":"212.1348","COUNTRY_CODE":"US","MEAN_MOTION_DDOT":"0.0000000000000","MEAN_ANOMALY":"298.5205","GP_ID":"183213264","PERIOD":"95.592","APOAPSIS":"547.933","OBJECT_ID":"2020-057BK"},{"INCLINATION":"53.0537","PERIAPSIS":"546.740","OBJECT_NAME":"STARLINK-1734","MEAN_MOTION":"15.06397390","TIME_SYSTEM":"UTC","CLASSIFICATION_TYPE":"U","TLE_LINE1":"1 46325U 20062A   21233.72442966  .00000645  00000-0  62176-4 0  9992","RA_OF_ASC_NODE":"227.9881","COUNTRY_CODE":"US","MEAN_MOTION_DDOT":"0.0000000000000","MEAN_ANOMALY":"324.2530","APOAPSIS":"547.704","PERIOD":"95.592","GP_ID":"183213276","OBJECT_ID":"2020-062A","REF_FRAME":"TEME","BSTAR":"0.00006217600000","OBJECT_TYPE":"PAYLOAD","EPOCH":"2021-08-21T17:23:10.722624","EPHEMERIS_TYPE":"0","REV_AT_EPOCH":"5520","MEAN_MOTION_DOT":"0.00000645","MEAN_ELEMENT_THEORY":"SGP4","RCS_SIZE":"LARGE","FILE":"3101032","CENTER_NAME":"EARTH","DECAY_DATE":null,"ARG_OF_PERICENTER":"35.8505","TLE_LINE2":"2 46325  53.0537 227.9881 0000696  35.8505 324.2530 15.06397390 55203","SITE":"AFETR","LAUNCH_DATE":"2020-09-03","ECCENTRICITY":"0.00006960","ELEMENT_SET_NO":"999","SEMIMAJOR_AXIS":"6925.357","NORAD_CAT_ID":"46325"},{"EPHEMERIS_TYPE":"0","EPOCH":"2021-08-21T19:57:41.597280","OBJECT_TYPE":"PAYLOAD","BSTAR":"0.00012268000000","REF_FRAME":"TEME","CENTER_NAME":"EARTH","FILE":"3101032","RCS_SIZE":"LARGE","MEAN_ELEMENT_THEORY":"SGP4","MEAN_MOTION_DOT":"0.00001547","REV_AT_EPOCH":"5398","TLE_LINE2":"2 46326  53.0529 272.5090 0000552  83.5559 276.5493 15.06409891 53983","ARG_OF_PERICENTER":"83.5559","DECAY_DATE":null,"SEMIMAJOR_AXIS":"6925.318","NORAD_CAT_ID":"46326","ELEMENT_SET_NO":"999","LAUNCH_DATE":"2020-09-03","ECCENTRICITY":"0.00005520","SITE":"AFETR","MEAN_MOTION":"15.06409891","OBJECT_NAME":"STARLINK-1654","PERIAPSIS":"546.801","INCLINATION":"53.0529","CLASSIFICATION_TYPE":"U","TIME_SYSTEM":"UTC","MEAN_MOTION_DDOT":"0.0000000000000","MEAN_ANOMALY":"276.5493","COUNTRY_CODE":"US","RA_OF_ASC_NODE":"272.5090","TLE_LINE1":"1 46326U 20062B   21233.83173145  .00001547  00000-0  12268-3 0  9993","OBJECT_ID":"2020-062B","GP_ID":"183213524","APOAPSIS":"547.566","PERIOD":"95.592"},{"ARG_OF_PERICENTER":"111.4262","TLE_LINE2":"2 46327  53.0542 272.6024 0000195 111.4262 248.6748 15.06399914 53978","DECAY_DATE":null,"ELEMENT_SET_NO":"999","NORAD_CAT_ID":"46327","SEMIMAJOR_AXIS":"6925.349","SITE":"AFETR","ECCENTRICITY":"0.00001950","LAUNCH_DATE":"2020-09-03","EPHEMERIS_TYPE":"0","OBJECT_TYPE":"PAYLOAD","EPOCH":"2021-08-21T19:27:12.537792","BSTAR":"0.00007159700000","REF_FRAME":"TEME","CENTER_NAME":"EARTH","FILE":"3101032","MEAN_ELEMENT_THEORY":"SGP4","RCS_SIZE":"LARGE","REV_AT_EPOCH":"5397","MEAN_MOTION_DOT":"0.00000786","MEAN_MOTION_DDOT":"0.0000000000000","MEAN_ANOMALY":"248.6748","COUNTRY_CODE":"US","RA_OF_ASC_NODE":"272.6024","TLE_LINE1":"1 46327U 20062C   21233.81056178  .00000786  00000-0  71597-4 0  9993","OBJECT_ID":"2020-062C","APOAPSIS":"547.349","PERIOD":"95.592","GP_ID":"183214775","MEAN_MOTION":"15.06399914","OBJECT_NAME":"STARLINK-1673","INCLINATION":"53.0542","PERIAPSIS":"547.079","CLASSIFICATION_TYPE":"U","TIME_SYSTEM":"UTC"},{"INCLINATION":"53.0538","PERIAPSIS":"546.697","OBJECT_NAME":"STARLINK-1686","MEAN_MOTION":"15.06396949","TIME_SYSTEM":"UTC","CLASSIFICATION_TYPE":"U","TLE_LINE1":"1 46328U 20062D   21233.85666011  .00000888  00000-0  78464-4 0  9994","RA_OF_ASC_NODE":"252.3911","COUNTRY_CODE":"US","MEAN_ANOMALY":"303.0305","MEAN_MOTION_DDOT":"0.0000000000000","PERIOD":"95.592","APOAPSIS":"547.749","GP_ID":"183214512","OBJECT_ID":"2020-062D","REF_FRAME":"TEME","BSTAR":"0.00007846400000","OBJECT_TYPE":"PAYLOAD","EPOCH":"2021-08-21T20:33:35.433504","EPHEMERIS_TYPE":"0","REV_AT_EPOCH":"5426","MEAN_MOTION_DOT":"0.00000888","MEAN_ELEMENT_THEORY":"SGP4","RCS_SIZE":"LARGE","FILE":"3101032","CENTER_NAME":"EARTH","DECAY_DATE":null,"ARG_OF_PERICENTER":"57.0757","TLE_LINE2":"2 46328  53.0538 252.3911 0000760  57.0757 303.0305 15.06396949 54269","SITE":"AFETR","LAUNCH_DATE":"2020-09-03","ECCENTRICITY":"0.00007600","ELEMENT_SET_NO":"999","SEMIMAJOR_AXIS":"6925.358","NORAD_CAT_ID":"46328"}];
